{
  "type": "FeatureCollection",
  "features": [
    {
      "type": "Feature",
      "properties": {
        "norad_id": 38091,
        "name": "BEIDOU-2 G5 (C05)",
        "group": "gnss",
        "lat": -0.10906389148866456,
        "lon": -107.65421711816421,
        "alt_km": 35747.51553175869,
        "timestamp": "2025-12-09T07:41:33.448291+00:00",
        "meta_object_name": "BEIDOU-2 G5 (C05)",
        "meta_object_id": "2012-008A",
        "meta_epoch": "2025-12-08T22:34:38.601120",
        "meta_mean_motion": 1.00274031,
        "meta_eccentricity": 0.00125308,
        "meta_inclination": 3.0993,
        "meta_ra_of_asc_node": 70.7121,
        "meta_arg_of_pericenter": 226.1175,
        "meta_mean_anomaly": 178.5121,
        "meta_ephemeris_type": 0,
        "meta_classification_type": "U",
        "meta_norad_cat_id": 38091,
        "meta_element_set_no": 999,
        "meta_rev_at_epoch": 5046,
        "meta_bstar": 0,
        "meta_mean_motion_dot": 5.8e-07,
        "meta_mean_motion_ddot": 0,
        "tle_line1": "1 38091U 12008A   25342.94072455  .00000058  00000+0  00000+0 0  9995",
        "tle_line2": "2 38091   3.0993  70.7121 0012530 226.1175 178.5121  1.00274031 50468"
      },
      "geometry": {
        "type": "Point",
        "coordinates": [
          -107.65421711816421,
          -0.10906389148866456
        ]
      }
    },
    {
      "type": "Feature",
      "properties": {
        "norad_id": 38250,
        "name": "BEIDOU-2 M3 (C11)",
        "group": "gnss",
        "lat": 29.335950428356973,
        "lon": 108.90876029011918,
        "alt_km": 21568.77069210398,
        "timestamp": "2025-12-09T07:41:33.448306+00:00",
        "meta_object_name": "BEIDOU-2 M3 (C11)",
        "meta_object_id": "2012-018A",
        "meta_epoch": "2025-12-08T13:38:39.271776",
        "meta_mean_motion": 1.86229758,
        "meta_eccentricity": 0.0024371,
        "meta_inclination": 55.9237,
        "meta_ra_of_asc_node": 311.2977,
        "meta_arg_of_pericenter": 274.148,
        "meta_mean_anomaly": 85.5607,
        "meta_ephemeris_type": 0,
        "meta_classification_type": "U",
        "meta_norad_cat_id": 38250,
        "meta_element_set_no": 999,
        "meta_rev_at_epoch": 9239,
        "meta_bstar": 0,
        "meta_mean_motion_dot": -7.3e-07,
        "meta_mean_motion_ddot": 0,
        "tle_line1": "1 38250U 12018A   25342.56851009 -.00000073  00000+0  00000+0 0  9999",
        "tle_line2": "2 38250  55.9237 311.2977 0024371 274.1480  85.5607  1.86229758 92396"
      },
      "geometry": {
        "type": "Point",
        "coordinates": [
          108.90876029011918,
          29.335950428356973
        ]
      }
    },
    {
      "type": "Feature",
      "properties": {
        "norad_id": 38251,
        "name": "BEIDOU-2 M4 (C12)",
        "group": "gnss",
        "lat": -7.794757467928538,
        "lon": 135.8161945118703,
        "alt_km": 21528.06105814589,
        "timestamp": "2025-12-09T07:41:33.448317+00:00",
        "meta_object_name": "BEIDOU-2 M4 (C12)",
        "meta_object_id": "2012-018B",
        "meta_epoch": "2025-12-08T12:00:48.229344",
        "meta_mean_motion": 1.86229448,
        "meta_eccentricity": 0.0015516,
        "meta_inclination": 55.8253,
        "meta_ra_of_asc_node": 310.5294,
        "meta_arg_of_pericenter": 277.5058,
        "meta_mean_anomaly": 82.3051,
        "meta_ephemeris_type": 0,
        "meta_classification_type": "U",
        "meta_norad_cat_id": 38251,
        "meta_element_set_no": 999,
        "meta_rev_at_epoch": 9239,
        "meta_bstar": 0,
        "meta_mean_motion_dot": -7.3e-07,
        "meta_mean_motion_ddot": 0,
        "tle_line1": "1 38251U 12018B   25342.50055821 -.00000073  00000+0  00000+0 0  9992",
        "tle_line2": "2 38251  55.8253 310.5294 0015516 277.5058  82.3051  1.86229448 92391"
      },
      "geometry": {
        "type": "Point",
        "coordinates": [
          135.8161945118703,
          -7.794757467928538
        ]
      }
    },
    {
      "type": "Feature",
      "properties": {
        "norad_id": 38652,
        "name": "SES-5 (EGNOS/PRN 136)",
        "group": "gnss",
        "lat": -0.0674651378372021,
        "lon": -161.342652524782,
        "alt_km": 35780.914031133834,
        "timestamp": "2025-12-09T07:41:33.448334+00:00",
        "meta_object_name": "SES-5 (EGNOS/PRN 136)",
        "meta_object_id": "2012-036A",
        "meta_epoch": "2025-12-08T15:20:19.777056",
        "meta_mean_motion": 1.00270941,
        "meta_eccentricity": 0.00022004,
        "meta_inclination": 0.0584,
        "meta_ra_of_asc_node": 304.5652,
        "meta_arg_of_pericenter": 308.8412,
        "meta_mean_anomaly": 59.2985,
        "meta_ephemeris_type": 0,
        "meta_classification_type": "U",
        "meta_norad_cat_id": 38652,
        "meta_element_set_no": 999,
        "meta_rev_at_epoch": 4255,
        "meta_bstar": 0,
        "meta_mean_motion_dot": 3.6e-07,
        "meta_mean_motion_ddot": 0,
        "tle_line1": "1 38652U 12036A   25342.63911779  .00000036  00000+0  00000+0 0  9992",
        "tle_line2": "2 38652   0.0584 304.5652 0002200 308.8412  59.2985  1.00270941 42556"
      },
      "geometry": {
        "type": "Point",
        "coordinates": [
          -161.342652524782,
          -0.0674651378372021
        ]
      }
    },
    {
      "type": "Feature",
      "properties": {
        "norad_id": 38775,
        "name": "BEIDOU-2 M6 (C14)",
        "group": "gnss",
        "lat": 19.47022771925838,
        "lon": 82.77757027690893,
        "alt_km": 21501.57204906975,
        "timestamp": "2025-12-09T07:41:33.448347+00:00",
        "meta_object_name": "BEIDOU-2 M6 (C14)",
        "meta_object_id": "2012-050B",
        "meta_epoch": "2025-12-08T05:04:33.479040",
        "meta_mean_motion": 1.86230723,
        "meta_eccentricity": 0.00110356,
        "meta_inclination": 56.3747,
        "meta_ra_of_asc_node": 69.2178,
        "meta_arg_of_pericenter": 345.3738,
        "meta_mean_anomaly": 14.6151,
        "meta_ephemeris_type": 0,
        "meta_classification_type": "U",
        "meta_norad_cat_id": 38775,
        "meta_element_set_no": 999,
        "meta_rev_at_epoch": 8975,
        "meta_bstar": 0,
        "meta_mean_motion_dot": -4.4e-07,
        "meta_mean_motion_ddot": 0,
        "tle_line1": "1 38775U 12050B   25342.21149860 -.00000044  00000+0  00000+0 0  9992",
        "tle_line2": "2 38775  56.3747  69.2178 0011035 345.3738  14.6151  1.86230723 89759"
      },
      "geometry": {
        "type": "Point",
        "coordinates": [
          82.77757027690893,
          19.47022771925838
        ]
      }
    },
    {
      "type": "Feature",
      "properties": {
        "norad_id": 38779,
        "name": "GSAT-10 (GAGAN/PRN 128)",
        "group": "gnss",
        "lat": -0.009472040831441507,
        "lon": -83.30077341439664,
        "alt_km": 35793.61132098595,
        "timestamp": "2025-12-09T07:41:33.448359+00:00",
        "meta_object_name": "GSAT-10 (GAGAN/PRN 128)",
        "meta_object_id": "2012-051B",
        "meta_epoch": "2025-12-08T21:53:38.527008",
        "meta_mean_motion": 1.00273323,
        "meta_eccentricity": 0.00021646,
        "meta_inclination": 0.0169,
        "meta_ra_of_asc_node": 264.9387,
        "meta_arg_of_pericenter": 221.4972,
        "meta_mean_anomaly": 2.8712,
        "meta_ephemeris_type": 0,
        "meta_classification_type": "U",
        "meta_norad_cat_id": 38779,
        "meta_element_set_no": 999,
        "meta_rev_at_epoch": 4819,
        "meta_bstar": 0,
        "meta_mean_motion_dot": -1.63e-06,
        "meta_mean_motion_ddot": 0,
        "tle_line1": "1 38779U 12051B   25342.91225147 -.00000163  00000+0  00000+0 0  9999",
        "tle_line2": "2 38779   0.0169 264.9387 0002164 221.4972   2.8712  1.00273323 48194"
      },
      "geometry": {
        "type": "Point",
        "coordinates": [
          -83.30077341439664,
          -0.009472040831441507
        ]
      }
    },
    {
      "type": "Feature",
      "properties": {
        "norad_id": 38833,
        "name": "GPS BIIF-3  (PRN 24)",
        "group": "gnss",
        "lat": -23.363432505539485,
        "lon": 132.7510600634369,
        "alt_km": 20205.56013520645,
        "timestamp": "2025-12-09T07:41:33.448371+00:00",
        "meta_object_name": "GPS BIIF-3  (PRN 24)",
        "meta_object_id": "2012-053A",
        "meta_epoch": "2025-12-07T20:46:13.738656",
        "meta_mean_motion": 2.00564906,
        "meta_eccentricity": 0.01756617,
        "meta_inclination": 53.5567,
        "meta_ra_of_asc_node": 151.4383,
        "meta_arg_of_pericenter": 63.924,
        "meta_mean_anomaly": 297.8703,
        "meta_ephemeris_type": 0,
        "meta_classification_type": "U",
        "meta_norad_cat_id": 38833,
        "meta_element_set_no": 999,
        "meta_rev_at_epoch": 9560,
        "meta_bstar": 0,
        "meta_mean_motion_dot": 5.3e-07,
        "meta_mean_motion_ddot": 0,
        "tle_line1": "1 38833U 12053A   25341.86543679  .00000053  00000+0  00000+0 0  9995",
        "tle_line2": "2 38833  53.5567 151.4383 0175661  63.9240 297.8703  2.00564906 95601"
      },
      "geometry": {
        "type": "Point",
        "coordinates": [
          132.7510600634369,
          -23.363432505539485
        ]
      }
    }
  ]
}